ONEWEB-0275             
1 48993U 21060AC  26160.70573440 -.00000032  00000+0 -11774-3 0  9996
2 48993  87.9100 230.2610 0001972  96.6296 263.5060 13.16594042238573
ONEWEB-0276             
1 48994U 21060AD  26160.73897703 -.00000090  00000+0 -27027-3 0  9993
2 48994  87.9101 230.2537 0002009  94.0421 266.0940 13.16594563238592
ONEWEB-0277             
1 48995U 21060AE  26160.67565240 -.00000062  00000+0 -19495-3 0  9994
2 48995  87.9094 230.2762 0001912 100.4451 259.6896 13.16593013238576
ONEWEB-0278             
1 48996U 21060AF  26160.66613245 -.00000005  00000+0 -47799-4 0  9999
2 48996  87.9105 230.2672 0002281 101.7263 258.4124 13.16596479238700
ONEWEB-0279             
1 48997U 21060AG  26160.67406661 -.00000055  00000+0 -17735-3 0  9994
2 48997  87.9101 230.2638 0001819  95.8712 264.2627 13.16594478238639
ONEWEB-0280             
1 48998U 21060AH  26160.68909608 -.00000106  00000+0 -31074-3 0  9994
2 48998  87.9099 230.2653 0002026 108.5463 251.5888 13.16593162238579
ONEWEB-0281             
1 48999U 21060AJ  26160.69465093 -.00000047  00000+0 -15602-3 0  9994
2 48999  87.9099 230.2594 0002105  99.7011 260.4358 13.16594278238640
ONEWEB-0282             
1 49000U 21060AK  26160.72471175  .00000038  00000+0  66929-4 0  9997
2 49000  87.9099 230.2617 0001902 101.7982 258.3362 13.16596944238626
ONEWEB-0283             
1 49001U 21060AL  26160.71364370 -.00000044  00000+0 -14852-3 0  9991
2 49001  87.9098 230.2635 0001884  97.6211 262.5134 13.16593916238634
ONEWEB-0284             
1 49002U 21060AM  26160.70731628  .00000053  00000+0  10561-3 0  9996
2 49002  87.9099 230.2579 0002159 108.0164 252.1203 13.16594287238615
ONEWEB-0285             
1 49075U 21075A   26160.81774009  .00000336  00000+0  89854-3 0  9999
2 49075  87.8949 352.1278 0001747  90.3304 269.8025 13.12444019234244
ONEWEB-0286             
1 49076U 21075B   26160.79980556 -.00000230  00000+0 -67573-3 0  9992
2 49076  87.8937 352.1489 0002019  86.8160 273.3199 13.12443819233595
ONEWEB-0287             
1 49077U 21075C   26160.80084282  .00000058  00000+0  11728-3 0  9993
2 49077  87.9138   7.3354 0002271  87.8579 272.2813 13.17649021232650
ONEWEB-0288             
1 49078U 21075D   26160.77622669 -.00000191  00000+0 -56713-3 0  9990
2 49078  87.8948 352.1293 0001992  92.7197 267.4159 13.12442036234217
ONEWEB-0289             
1 49079U 21075E   26160.61171055  .00000045  00000+0  82717-4 0  9992
2 49079  87.9142   7.3898 0001722  99.4279 260.7048 13.17649132233203
ONEWEB-0290             
1 49080U 21075F   26160.81265946 -.00000004  00000+0 -43128-4 0  9999
2 49080  87.9150   7.3213 0001600 101.8845 258.2467 13.17648616232647
ONEWEB-0291             
1 49081U 21075G   26160.87340793  .00000061  00000+0  12487-3 0  9994
2 49081  87.9141   7.3173 0002117  94.9366 265.2007 13.17648255232644
ONEWEB-0293             
1 49082U 21075H   26160.59496455  .00000028  00000+0  37860-4 0  9997
2 49082  87.9137   7.3757 0001823  91.8868 268.2472 13.17647723232631
ONEWEB-0294             
1 49083U 21075J   26160.78300371 -.00000309  00000+0 -89344-3 0  9997
2 49083  87.8948 352.1316 0001697  99.6561 260.4760 13.12443071233605
ONEWEB-0295             
1 49084U 21075K   26160.59412440  .00000064  00000+0  13087-3 0  9995
2 49084  87.9137   7.3804 0002126  91.0902 269.0473 13.17648078232593
ONEWEB-0296             
1 49085U 21075L   26160.76267720  .00000297  00000+0  78887-3 0  9991
2 49085  87.8952 352.1428 0002086  95.4169 264.7197 13.12442272233600
ONEWEB-0297             
1 49086U 21075M   26160.79316537 -.00000411  00000+0 -11788-2 0  9992
2 49086  87.8937 352.1485 0001927  89.5695 270.5654 13.12443858234210
ONEWEB-0298             
1 49087U 21075N   26160.59848149 -.00001083  00000+0 -28234-2 0  9990
2 49087  87.9136   7.3775 0001988  83.7956 276.3402 13.17655579232625
ONEWEB-0299             
1 49088U 21075P   26160.60003996  .00000041  00000+0  73234-4 0  9999
2 49088  87.9147   7.3566 0002044  86.8268 273.3098 13.17649895232600
ONEWEB-0300             
1 49089U 21075Q   26160.78553913 -.00000435  00000+0 -12454-2 0  9992
2 49089  87.8951 352.1289 0001948  78.2268 281.9079 13.12444229234237
ONEWEB-0301             
1 49090U 21075R   26160.76944994  .00000055  00000+0  11722-3 0  9999
2 49090  87.8947 352.1302 0001785  78.0617 282.0711 13.12443138233596
ONEWEB-0302             
1 49091U 21075S   26160.75590566  .00000428  00000+0  11538-2 0  9999
2 49091  87.8951 352.1446 0001823  99.5762 260.5573 13.12442377233572
ONEWEB-0304             
1 49092U 21075T   26160.80253093  .00000068  00000+0  14161-3 0  9993
2 49092  87.9139   7.3394 0002008  88.3277 271.8084 13.17648755232604
ONEWEB-0305             
1 49093U 21075U   26160.49203795  .00000038  00000+0  64911-4 0  9999
2 49093  87.9147   7.3851 0002241  88.7137 271.4252 13.17648774232592
ONEWEB-0308             
1 49094U 21075V   26160.52041614  .00000501  00000+0  13568-2 0  9999
2 49094  87.8949 352.1837 0001783  88.6330 271.5003 13.12442947233552
