OBJECT_NAME,OBJECT_ID,EPOCH,MEAN_MOTION,ECCENTRICITY,INCLINATION,RA_OF_ASC_NODE,ARG_OF_PERICENTER,MEAN_ANOMALY,EPHEMERIS_TYPE,CLASSIFICATION_TYPE,NORAD_CAT_ID,ELEMENT_SET_NO,REV_AT_EPOCH,BSTAR,MEAN_MOTION_DOT,MEAN_MOTION_DDOT
ONEWEB-0275,2021-060AC,2026-06-09T16:56:15.452160,13.16594042,.00019727,87.9100,230.2610,96.6296,263.5060,0,U,48993,999,23857,-.11773821E-3,-.32E-6,0
ONEWEB-0276,2021-060AD,2026-06-09T17:44:07.615392,13.16594563,.00020095,87.9101,230.2537,94.0421,266.0940,0,U,48994,999,23859,-.27026519E-3,-.9E-6,0
ONEWEB-0277,2021-060AE,2026-06-09T16:12:56.367360,13.16593013,.00019129,87.9094,230.2762,100.4451,259.6896,0,U,48995,999,23857,-.19494934E-3,-.62E-6,0
ONEWEB-0278,2021-060AF,2026-06-09T15:59:13.843680,13.16596479,.00022817,87.9105,230.2672,101.7263,258.4124,0,U,48996,999,23870,-.47798947E-4,-.5E-7,0
ONEWEB-0279,2021-060AG,2026-06-09T16:10:39.355104,13.16594478,.00018198,87.9101,230.2638,95.8712,264.2627,0,U,48997,999,23863,-.17734511E-3,-.55E-6,0
ONEWEB-0280,2021-060AH,2026-06-09T16:32:17.901312,13.16593162,.00020267,87.9099,230.2653,108.5463,251.5888,0,U,48998,999,23857,-.31074166E-3,-.106E-5,0
ONEWEB-0281,2021-060AJ,2026-06-09T16:40:17.840352,13.16594278,.00021056,87.9099,230.2594,99.7011,260.4358,0,U,48999,999,23864,-.15601856E-3,-.47E-6,0
ONEWEB-0282,2021-060AK,2026-06-09T17:23:35.095200,13.16596944,.00019026,87.9099,230.2617,101.7982,258.3362,0,U,49000,999,23862,.66928615E-4,.38E-6,0
ONEWEB-0283,2021-060AL,2026-06-09T17:07:38.815680,13.16593916,.00018842,87.9098,230.2635,97.6211,262.5134,0,U,49001,999,23863,-.14851672E-3,-.44E-6,0
ONEWEB-0284,2021-060AM,2026-06-09T16:58:32.126592,13.16594287,.00021599,87.9099,230.2579,108.0164,252.1203,0,U,49002,999,23861,.10561115E-3,.53E-6,0
ONEWEB-0285,2021-075A,2026-06-09T19:37:32.743776,13.12444019,.00017475,87.8949,352.1278,90.3304,269.8025,0,U,49075,999,23424,.8985422E-3,.336E-5,0
ONEWEB-0286,2021-075B,2026-06-09T19:11:43.200384,13.12443819,.00020196,87.8937,352.1489,86.8160,273.3199,0,U,49076,999,23359,-.67573072E-3,-.23E-5,0
ONEWEB-0287,2021-075C,2026-06-09T19:13:12.819648,13.17649021,.00022714,87.9138,7.3354,87.8579,272.2813,0,U,49077,999,23265,.11728252E-3,.58E-6,0
ONEWEB-0288,2021-075D,2026-06-09T18:37:45.986016,13.12442036,.00019922,87.8948,352.1293,92.7197,267.4159,0,U,49078,999,23421,-.56712763E-3,-.191E-5,0
ONEWEB-0289,2021-075E,2026-06-09T14:40:51.791520,13.17649132,.00017223,87.9142,7.3898,99.4279,260.7048,0,U,49079,999,23320,.82716753E-4,.45E-6,0
ONEWEB-0290,2021-075F,2026-06-09T19:30:13.777344,13.17648616,.00016004,87.9150,7.3213,101.8845,258.2467,0,U,49080,999,23264,-.43128132E-4,-.4E-7,0
ONEWEB-0291,2021-075G,2026-06-09T20:57:42.445152,13.17648255,.00021174,87.9141,7.3173,94.9366,265.2007,0,U,49081,999,23264,.12487235E-3,.61E-6,0
ONEWEB-0293,2021-075H,2026-06-09T14:16:44.937120,13.17647723,.00018233,87.9137,7.3757,91.8868,268.2472,0,U,49082,999,23263,.37859909E-4,.28E-6,0
ONEWEB-0294,2021-075J,2026-06-09T18:47:31.520544,13.12443071,.00016974,87.8948,352.1316,99.6561,260.4760,0,U,49083,999,23360,-.89344429E-3,-.309E-5,0
ONEWEB-0295,2021-075K,2026-06-09T14:15:32.348160,13.17648078,.00021268,87.9137,7.3804,91.0902,269.0473,0,U,49084,999,23259,.13086666E-3,.64E-6,0
ONEWEB-0296,2021-075L,2026-06-09T18:18:15.310080,13.12442272,.00020861,87.8952,352.1428,95.4169,264.7197,0,U,49085,999,23360,.78887499E-3,.297E-5,0
ONEWEB-0297,2021-075M,2026-06-09T19:02:09.487968,13.12443858,.00019274,87.8937,352.1485,89.5695,270.5654,0,U,49086,999,23421,-.11788434E-2,-.411E-5,0
ONEWEB-0298,2021-075N,2026-06-09T14:21:48.800736,13.17655579,.00019889,87.9136,7.3775,83.7956,276.3402,0,U,49087,999,23262,-.28233818E-2,-.1083E-4,0
ONEWEB-0299,2021-075P,2026-06-09T14:24:03.452544,13.17649895,.00020443,87.9147,7.3566,86.8268,273.3098,0,U,49088,999,23260,.73234208E-4,.41E-6,0
ONEWEB-0300,2021-075Q,2026-06-09T18:51:10.580832,13.12444229,.00019487,87.8951,352.1289,78.2268,281.9079,0,U,49089,999,23423,-.12454292E-2,-.435E-5,0
ONEWEB-0301,2021-075R,2026-06-09T18:28:00.474816,13.12443138,.0001785,87.8947,352.1302,78.0617,282.0711,0,U,49090,999,23359,.11721778E-3,.55E-6,0
ONEWEB-0302,2021-075S,2026-06-09T18:08:30.249024,13.12442377,.00018232,87.8951,352.1446,99.5762,260.5573,0,U,49091,999,23357,.11537827E-2,.428E-5,0
ONEWEB-0304,2021-075T,2026-06-09T19:15:38.672352,13.17648755,.00020087,87.9139,7.3394,88.3277,271.8084,0,U,49092,999,23260,.14160768E-3,.68E-6,0
ONEWEB-0305,2021-075U,2026-06-09T11:48:32.078880,13.17648774,.00022419,87.9147,7.3851,88.7137,271.4252,0,U,49093,999,23259,.64910731E-4,.38E-6,0
ONEWEB-0308,2021-075V,2026-06-09T12:29:23.954496,13.12442947,.00017837,87.8949,352.1837,88.6330,271.5003,0,U,49094,999,23355,.13567763E-2,.501E-5,0
